LEGION 1                
1 59625U 24081A   24143.55424041  .00010946  00000+0  56759-3 0  9995
2 59625  97.5771 214.6568 0004977 102.3441 257.8349 15.16325510  2996
